{
  "id": 1695572075,
  "type": "Feature",
  "properties": {
    "edtf:cessation": "2017-08-27T18:47:11",
    "edtf:inception": "2017-08-27~",
    "flysfo:airline": "UA",
    "flysfo:date": "2017-08-27",
    "flysfo:event": "A",
    "flysfo:flight_number": "UA737",
    "flysfo:journey": "EDDL-SFO",
    "geom:area": 0,
    "geom:bbox": "-122.370943,37.617990,6.763227,51.260024",
    "geom:latitude": 44.439007000000004,
    "geom:longitude": -57.803858,
    "iata:airline": "UA",
    "icao:aircraft": "B739",
    "icao:airline": "UAL",
    "mz:is_current": -1,
    "sfomuseum:aircraft_id": 1377564285,
    "sfomuseum:airline_id": 1159285413,
    "sfomuseum:arrival_id": 102527513,
    "sfomuseum:departure_id": 102549121,
    "sfomuseum:flight_id": "20170827-A-UAL-737",
    "sfomuseum:flight_number": [
      "UA737", 
      "UAL737"
    ],
    "sfomuseum:placetype": "flight",
    "src:geom": "sfonoise",
    "wof:belongsto": [
      1695572075, 
      85922583, 
      102087579, 
      102527513, 
      85633793, 
      85688637, 
      1159157271, 
      102191575
    ],
    "wof:country": "US",
    "wof:created": 1583178436,
    "wof:geomhash": "71fbb665dfe5f5dbbed9b31c6e472e5d",
    "wof:hierarchy": [
      {
        "building_id": 1159157271,
        "campus_id": 102527513,
        "concourse_id": -1,
        "continent_id": 102191575,
        "country_id": 85633793,
        "county_id": 102087579,
        "event_id": 1695572075,
        "locality_id": 85922583,
        "neighbourhood_id": -1,
        "region_id": 85688637,
        "venue_id": -1,
        "wing_id": -1
      }
    ],
    "wof:id": 1695572075,
    "wof:lastmodified": 1583178436,
    "wof:name": "UAL737 (EDDL-SFO)",
    "wof:parent_id": -1,
    "wof:placetype": "event",
    "wof:repo": "sfomuseum-data-flights-2017",
    "wof:superseded_by": [],
    "wof:supersedes": []
  },
  "bbox": [
    -122.370943, 
    37.61799, 
    6.763227, 
    51.260024
  ],
  "geometry": {"coordinates":[[6.763227,51.260024],[-122.370943,37.61799]],"type":"MultiPoint"}
}
