{
  "id": 1695572051,
  "type": "Feature",
  "properties": {
    "edtf:cessation": "2017-08-27T18:24:36",
    "edtf:inception": "2017-08-27~",
    "flysfo:airline": "OO",
    "flysfo:date": "2017-08-27",
    "flysfo:event": "A",
    "flysfo:flight_number": "OO5743",
    "flysfo:journey": "KBOI-SFO",
    "geom:area": 0,
    "geom:bbox": "-122.370943,37.617990,-116.224634,43.564048",
    "geom:latitude": 40.591019,
    "geom:longitude": -119.2977885,
    "iata:airline": "OO",
    "icao:aircraft": "A320",
    "icao:airline": "SKW",
    "mz:is_current": -1,
    "sfomuseum:aircraft_id": 1159292085,
    "sfomuseum:airline_id": 1159285179,
    "sfomuseum:arrival_id": 102527513,
    "sfomuseum:departure_id": 102527733,
    "sfomuseum:flight_id": "20170827-A-SKW-5743",
    "sfomuseum:flight_number": [
      "OO5743", 
      "SKW5743"
    ],
    "sfomuseum:placetype": "flight",
    "src:geom": "sfonoise",
    "wof:belongsto": [
      1695572051, 
      85922583, 
      102527513, 
      102191575, 
      85633793, 
      85688637, 
      102087579, 
      1159157271
    ],
    "wof:country": "US",
    "wof:created": 1583178436,
    "wof:geomhash": "e506e1cc6e68aaf992ce3bac53e4e4fa",
    "wof:hierarchy": [
      {
        "building_id": 1159157271,
        "campus_id": 102527513,
        "concourse_id": -1,
        "continent_id": 102191575,
        "country_id": 85633793,
        "county_id": 102087579,
        "event_id": 1695572051,
        "locality_id": 85922583,
        "neighbourhood_id": -1,
        "region_id": 85688637,
        "venue_id": -1,
        "wing_id": -1
      }
    ],
    "wof:id": 1695572051,
    "wof:lastmodified": 1583178436,
    "wof:name": "SKW5743 (KBOI-SFO)",
    "wof:parent_id": -1,
    "wof:placetype": "event",
    "wof:repo": "sfomuseum-data-flights-2017",
    "wof:superseded_by": [],
    "wof:supersedes": []
  },
  "bbox": [
    -122.370943, 
    37.61799, 
    -116.224634, 
    43.564048
  ],
  "geometry": {"coordinates":[[-116.224634,43.564048],[-122.370943,37.61799]],"type":"MultiPoint"}
}
